CCSDS_OMM_VERS = 2.0
CREATION_DATE  = 
ORIGINATOR     = 

OBJECT_NAME    = STARLINK-36039
OBJECT_ID      = 2025-270AA
CENTER_NAME    = EARTH
REF_FRAME      = TEME
TIME_SYSTEM    = UTC
MEAN_ELEMENT_THEORY = SGP/SGP4

EPOCH          = 2025-12-08T22:00:03.000096
MEAN_MOTION    = 15.58499464
ECCENTRICITY   = .00014629
INCLINATION    = 42.9991
RA_OF_ASC_NODE = 215.0431
ARG_OF_PERICENTER = 258.2561
MEAN_ANOMALY   = 23.5811

EPHEMERIS_TYPE = 0
CLASSIFICATION_TYPE = U
NORAD_CAT_ID   = 66612
ELEMENT_SET_NO = 999
REV_AT_EPOCH   = 378
BSTAR          = -.2947825E-1
MEAN_MOTION_DOT = -.2063966E-1
MEAN_MOTION_DDOT = 0

CCSDS_OMM_VERS = 2.0
CREATION_DATE  = 
ORIGINATOR     = 

OBJECT_NAME    = STARLINK-36037
OBJECT_ID      = 2025-270AB
CENTER_NAME    = EARTH
REF_FRAME      = TEME
TIME_SYSTEM    = UTC
MEAN_ELEMENT_THEORY = SGP/SGP4

EPOCH          = 2025-12-08T22:00:03.000096
MEAN_MOTION    = 15.58500023
ECCENTRICITY   = .0001474
INCLINATION    = 42.9991
RA_OF_ASC_NODE = 215.0385
ARG_OF_PERICENTER = 259.0704
MEAN_ANOMALY   = 24.6823

EPHEMERIS_TYPE = 0
CLASSIFICATION_TYPE = U
NORAD_CAT_ID   = 66613
ELEMENT_SET_NO = 999
REV_AT_EPOCH   = 378
BSTAR          = -.29464102E-1
MEAN_MOTION_DOT = -.2063128E-1
MEAN_MOTION_DDOT = 0

CCSDS_OMM_VERS = 2.0
CREATION_DATE  = 
ORIGINATOR     = 

OBJECT_NAME    = STARLINK-36040
OBJECT_ID      = 2025-270AC
CENTER_NAME    = EARTH
REF_FRAME      = TEME
TIME_SYSTEM    = UTC
MEAN_ELEMENT_THEORY = SGP/SGP4

EPOCH          = 2025-12-08T22:00:03.000096
MEAN_MOTION    = 15.58502142
ECCENTRICITY   = .00014988
INCLINATION    = 42.9990
RA_OF_ASC_NODE = 215.0284
ARG_OF_PERICENTER = 263.0568
MEAN_ANOMALY   = 24.5315

EPHEMERIS_TYPE = 0
CLASSIFICATION_TYPE = U
NORAD_CAT_ID   = 66614
ELEMENT_SET_NO = 999
REV_AT_EPOCH   = 362
BSTAR          = -.29542063E-1
MEAN_MOTION_DOT = -.2068167E-1
MEAN_MOTION_DDOT = 0

CCSDS_OMM_VERS = 2.0
CREATION_DATE  = 
ORIGINATOR     = 

OBJECT_NAME    = STARLINK-35988
OBJECT_ID      = 2025-270AD
CENTER_NAME    = EARTH
REF_FRAME      = TEME
TIME_SYSTEM    = UTC
MEAN_ELEMENT_THEORY = SGP/SGP4

EPOCH          = 2025-12-08T22:00:03.000096
MEAN_MOTION    = 15.58502562
ECCENTRICITY   = .00015081
INCLINATION    = 42.9990
RA_OF_ASC_NODE = 215.0339
ARG_OF_PERICENTER = 259.7255
MEAN_ANOMALY   = 25.9447

EPHEMERIS_TYPE = 0
CLASSIFICATION_TYPE = U
NORAD_CAT_ID   = 66615
ELEMENT_SET_NO = 999
REV_AT_EPOCH   = 362
BSTAR          = -.29547407E-1
MEAN_MOTION_DOT = -.2068536E-1
MEAN_MOTION_DDOT = 0

CCSDS_OMM_VERS = 2.0
CREATION_DATE  = 
ORIGINATOR     = 

OBJECT_NAME    = STARLINK-35391
OBJECT_ID      = 2025-270AE
CENTER_NAME    = EARTH
REF_FRAME      = TEME
TIME_SYSTEM    = UTC
MEAN_ELEMENT_THEORY = SGP/SGP4

EPOCH          = 2025-12-08T22:00:03.000096
MEAN_MOTION    = 15.58498824
ECCENTRICITY   = .00015864
INCLINATION    = 42.9990
RA_OF_ASC_NODE = 215.0241
ARG_OF_PERICENTER = 262.7380
MEAN_ANOMALY   = 26.7695

EPHEMERIS_TYPE = 0
CLASSIFICATION_TYPE = U
NORAD_CAT_ID   = 66616
ELEMENT_SET_NO = 999
REV_AT_EPOCH   = 389
BSTAR          = -.29500622E-1
MEAN_MOTION_DOT = -.2065402E-1
MEAN_MOTION_DDOT = 0

CCSDS_OMM_VERS = 2.0
CREATION_DATE  = 
ORIGINATOR     = 

OBJECT_NAME    = STARLINK-35940
OBJECT_ID      = 2025-271A
CENTER_NAME    = EARTH
REF_FRAME      = TEME
TIME_SYSTEM    = UTC
MEAN_ELEMENT_THEORY = SGP/SGP4

EPOCH          = 2025-12-08T22:00:03.000096
MEAN_MOTION    = 15.66598651
ECCENTRICITY   = .00010562
INCLINATION    = 53.1594
RA_OF_ASC_NODE = 205.7586
ARG_OF_PERICENTER = 98.1288
MEAN_ANOMALY   = 132.3441

EPHEMERIS_TYPE = 0
CLASSIFICATION_TYPE = U
NORAD_CAT_ID   = 66617
ELEMENT_SET_NO = 999
REV_AT_EPOCH   = 362
BSTAR          = -.21156314E-1
MEAN_MOTION_DOT = -.1988714E-1
MEAN_MOTION_DDOT = 0

CCSDS_OMM_VERS = 2.0
CREATION_DATE  = 
ORIGINATOR     = 

OBJECT_NAME    = STARLINK-35970
OBJECT_ID      = 2025-271B
CENTER_NAME    = EARTH
REF_FRAME      = TEME
TIME_SYSTEM    = UTC
MEAN_ELEMENT_THEORY = SGP/SGP4

EPOCH          = 2025-12-08T22:00:03.000096
MEAN_MOTION    = 15.66606704
ECCENTRICITY   = .00009188
INCLINATION    = 53.1589
RA_OF_ASC_NODE = 205.6462
ARG_OF_PERICENTER = 96.1797
MEAN_ANOMALY   = 187.6100

EPHEMERIS_TYPE = 0
CLASSIFICATION_TYPE = U
NORAD_CAT_ID   = 66618
ELEMENT_SET_NO = 999
REV_AT_EPOCH   = 362
BSTAR          = -.21246297E-1
MEAN_MOTION_DOT = -.1996626E-1
MEAN_MOTION_DDOT = 0

CCSDS_OMM_VERS = 2.0
CREATION_DATE  = 
ORIGINATOR     = 

OBJECT_NAME    = STARLINK-35951
OBJECT_ID      = 2025-271C
CENTER_NAME    = EARTH
REF_FRAME      = TEME
TIME_SYSTEM    = UTC
MEAN_ELEMENT_THEORY = SGP/SGP4

EPOCH          = 2025-12-08T22:00:03.000096
MEAN_MOTION    = 15.66604377
ECCENTRICITY   = .00010788
INCLINATION    = 53.1592
RA_OF_ASC_NODE = 205.7416
ARG_OF_PERICENTER = 106.4332
MEAN_ANOMALY   = 131.7008

EPHEMERIS_TYPE = 0
CLASSIFICATION_TYPE = U
NORAD_CAT_ID   = 66619
ELEMENT_SET_NO = 999
REV_AT_EPOCH   = 362
BSTAR          = -.2120952E-1
MEAN_MOTION_DOT = -.1993538E-1
MEAN_MOTION_DDOT = 0

CCSDS_OMM_VERS = 2.0
CREATION_DATE  = 
ORIGINATOR     = 

OBJECT_NAME    = STARLINK-35936
OBJECT_ID      = 2025-271D
CENTER_NAME    = EARTH
REF_FRAME      = TEME
TIME_SYSTEM    = UTC
MEAN_ELEMENT_THEORY = SGP/SGP4

EPOCH          = 2025-12-08T22:00:03.000096
MEAN_MOTION    = 15.66606745
ECCENTRICITY   = .00010476
INCLINATION    = 53.1594
RA_OF_ASC_NODE = 205.7544
ARG_OF_PERICENTER = 103.8378
MEAN_ANOMALY   = 128.5454

EPHEMERIS_TYPE = 0
CLASSIFICATION_TYPE = U
NORAD_CAT_ID   = 66620
ELEMENT_SET_NO = 999
REV_AT_EPOCH   = 362
BSTAR          = -.21248268E-1
MEAN_MOTION_DOT = -.1996886E-1
MEAN_MOTION_DDOT = 0

CCSDS_OMM_VERS = 2.0
CREATION_DATE  = 
ORIGINATOR     = 

OBJECT_NAME    = STARLINK-35847
OBJECT_ID      = 2025-271E
CENTER_NAME    = EARTH
REF_FRAME      = TEME
TIME_SYSTEM    = UTC
MEAN_ELEMENT_THEORY = SGP/SGP4

EPOCH          = 2025-12-08T22:00:03.000096
MEAN_MOTION    = 15.66606994
ECCENTRICITY   = .00009172
INCLINATION    = 53.1591
RA_OF_ASC_NODE = 205.6384
ARG_OF_PERICENTER = 98.5942
MEAN_ANOMALY   = 188.7319

EPHEMERIS_TYPE = 0
CLASSIFICATION_TYPE = U
NORAD_CAT_ID   = 66621
ELEMENT_SET_NO = 999
REV_AT_EPOCH   = 362
BSTAR          = -.21232572E-1
MEAN_MOTION_DOT = -.1995512E-1
MEAN_MOTION_DDOT = 0

CCSDS_OMM_VERS = 2.0
CREATION_DATE  = 
ORIGINATOR     = 

OBJECT_NAME    = STARLINK-35950
OBJECT_ID      = 2025-271F
CENTER_NAME    = EARTH
REF_FRAME      = TEME
TIME_SYSTEM    = UTC
MEAN_ELEMENT_THEORY = SGP/SGP4

EPOCH          = 2025-12-08T22:00:03.000096
MEAN_MOTION    = 15.66605531
ECCENTRICITY   = .00010741
INCLINATION    = 53.1593
RA_OF_ASC_NODE = 205.7383
ARG_OF_PERICENTER = 106.5393
MEAN_ANOMALY   = 133.5128

EPHEMERIS_TYPE = 0
CLASSIFICATION_TYPE = U
NORAD_CAT_ID   = 66622
ELEMENT_SET_NO = 999
REV_AT_EPOCH   = 362
BSTAR          = -.21241319E-1
MEAN_MOTION_DOT = -.1996245E-1
MEAN_MOTION_DDOT = 0

CCSDS_OMM_VERS = 2.0
CREATION_DATE  = 
ORIGINATOR     = 

OBJECT_NAME    = STARLINK-35920
OBJECT_ID      = 2025-271G
CENTER_NAME    = EARTH
REF_FRAME      = TEME
TIME_SYSTEM    = UTC
MEAN_ELEMENT_THEORY = SGP/SGP4

EPOCH          = 2025-12-08T22:00:03.000096
MEAN_MOTION    = 15.66605824
ECCENTRICITY   = .00010609
INCLINATION    = 53.1590
RA_OF_ASC_NODE = 205.7301
ARG_OF_PERICENTER = 99.0726
MEAN_ANOMALY   = 144.8117

EPHEMERIS_TYPE = 0
CLASSIFICATION_TYPE = U
NORAD_CAT_ID   = 66623
ELEMENT_SET_NO = 999
REV_AT_EPOCH   = 362
BSTAR          = -.21229872E-1
MEAN_MOTION_DOT = -.1995311E-1
MEAN_MOTION_DDOT = 0

CCSDS_OMM_VERS = 2.0
CREATION_DATE  = 
ORIGINATOR     = 

OBJECT_NAME    = STARLINK-35927
OBJECT_ID      = 2025-271H
CENTER_NAME    = EARTH
REF_FRAME      = TEME
TIME_SYSTEM    = UTC
MEAN_ELEMENT_THEORY = SGP/SGP4

EPOCH          = 2025-12-08T22:00:03.000096
MEAN_MOTION    = 15.66607738
ECCENTRICITY   = .00010057
INCLINATION    = 53.1590
RA_OF_ASC_NODE = 205.7344
ARG_OF_PERICENTER = 102.4246
MEAN_ANOMALY   = 139.5413

EPHEMERIS_TYPE = 0
CLASSIFICATION_TYPE = U
NORAD_CAT_ID   = 66624
ELEMENT_SET_NO = 999
REV_AT_EPOCH   = 362
BSTAR          = -.21245757E-1
MEAN_MOTION_DOT = -.1996719E-1
MEAN_MOTION_DDOT = 0

CCSDS_OMM_VERS = 2.0
CREATION_DATE  = 
ORIGINATOR     = 

OBJECT_NAME    = STARLINK-35929
OBJECT_ID      = 2025-271J
CENTER_NAME    = EARTH
REF_FRAME      = TEME
TIME_SYSTEM    = UTC
MEAN_ELEMENT_THEORY = SGP/SGP4

EPOCH          = 2025-12-08T22:00:03.000096
MEAN_MOTION    = 15.66679128
ECCENTRICITY   = .00012947
INCLINATION    = 53.1591
RA_OF_ASC_NODE = 205.7258
ARG_OF_PERICENTER = 128.2448
MEAN_ANOMALY   = 117.5661

EPHEMERIS_TYPE = 0
CLASSIFICATION_TYPE = U
NORAD_CAT_ID   = 66625
ELEMENT_SET_NO = 999
REV_AT_EPOCH   = 362
BSTAR          = -.2289942E-1
MEAN_MOTION_DOT = -.2137574E-1
MEAN_MOTION_DDOT = 0

CCSDS_OMM_VERS = 2.0
CREATION_DATE  = 
ORIGINATOR     = 

OBJECT_NAME    = STARLINK-35902
OBJECT_ID      = 2025-271K
CENTER_NAME    = EARTH
REF_FRAME      = TEME
TIME_SYSTEM    = UTC
MEAN_ELEMENT_THEORY = SGP/SGP4

EPOCH          = 2025-12-08T22:00:03.000096
MEAN_MOTION    = 15.66605305
ECCENTRICITY   = .00010732
INCLINATION    = 53.1593
RA_OF_ASC_NODE = 205.7215
ARG_OF_PERICENTER = 106.7664
MEAN_ANOMALY   = 140.9518

EPHEMERIS_TYPE = 0
CLASSIFICATION_TYPE = U
NORAD_CAT_ID   = 66626
ELEMENT_SET_NO = 999
REV_AT_EPOCH   = 362
BSTAR          = -.21213256E-1
MEAN_MOTION_DOT = -.1993909E-1
MEAN_MOTION_DDOT = 0

